MEAN_MOTION;ECCENTRICITY;INCLINATION;RA_OF_ASC_NODE;ARG_OF_PERICENTER;MEAN_ANOMALY;BSTAR;MEAN_MOTION_DOT;MEAN_MOTION_DDOT;TYPE
14.34219224;0.0001968;86.3973;318.0075;82.731;277.4109;1.7445E-5;6.9E-7;0;Iridium
14.34219367;0.0001961;86.3972;317.7159;82.6732;277.4687;2.1192E-5;7.9E-7;0;Iridium
14.34219358;0.0001964;86.3971;317.5993;82.8392;277.3027;2.0911E-5;7.8E-7;0;Iridium
14.3421943;0.0001962;86.397;317.3077;82.5871;277.5548;2.0987E-5;7.9E-7;0;Iridium
14.34219421;0.0001961;86.397;317.1911;82.7448;277.3971;2.0078E-5;7.6E-7;0;Iridium
14.34219479;0.0001954;86.3969;316.9869;82.9149;277.2269;2.0793E-5;7.8E-7;0;Iridium
14.34219539;0.0001943;86.3968;316.7536;83.0641;277.0776;2.221E-5;8.2E-7;0;Iridium
14.34219592;0.0001939;86.3968;316.6661;83.0287;277.1129;2.3306E-5;8.5E-7;0;Iridium
14.34219592;0.0001939;86.3968;316.6661;83.0287;277.1129;2.3306E-5;8.5E-7;0;Iridium
14.34219664;0.0001923;86.3965;316.0244;83.7426;276.3989;1.9931E-5;7.6E-7;0;Iridium
14.34219663;0.000192;86.3965;315.9369;83.9967;276.1448;2.0155E-5;7.6E-7;0;Iridium
14.34219712;0.0001913;86.3963;315.6452;83.8673;276.274;1.8369E-5;7.1E-7;0;Iridium
14.34215811;0.0001927;86.3965;315.4996;81.9423;278.1991;1.8073E-5;7.0E-7;0;Iridium
14.3421608;0.0001973;86.3962;315.3242;83.3384;276.8036;1.7252E-5;6.8E-7;0;Iridium
14.34216483;0.0001924;86.3961;315.0909;82.7677;277.3737;1.6834E-5;6.7E-7;0;Iridium
14.34216777;0.0001935;86.396;314.6825;84.8467;275.295;1.4077E-5;5.9E-7;0;Iridium
14.34216864;0.0001937;86.3958;314.3908;84.9311;275.2106;1.6401E-5;6.6E-7;0;Iridium
14.34216864;0.0001936;86.3958;314.3033;85.0714;275.0703;1.456E-5;6.1E-7;0;Iridium
14.34216911;0.000193;86.3956;313.9824;85.3812;274.7604;1.1549E-5;5.2E-7;0;Iridium
14.34216964;0.0001928;86.3956;313.8366;85.754;274.3876;1.3962E-5;5.9E-7;0;Iridium
14.34217027;0.0001922;86.3955;313.574;85.8017;274.3399;1.3552E-5;5.8E-7;0;Iridium
14.34217065;0.0001918;86.3954;313.399;86.0931;274.0484;1.3625E-5;5.8E-7;0;Iridium
14.34217175;0.0001917;86.3953;313.1364;86.2275;273.914;1.708E-5;6.8E-7;0;Iridium
14.34217226;0.0001917;86.3953;312.9905;86.5001;273.6414;1.9431E-5;7.4E-7;0;Iridium
14.342173;0.0001915;86.3951;312.7279;86.6174;273.5241;1.9383E-5;7.4E-7;0;Iridium
14.34217316;0.0001915;86.3951;312.6987;86.6672;273.4742;1.9609E-5;7.5E-7;0;Iridium
14.3421735;0.0001915;86.3951;312.582;86.8681;273.2734;2.1688E-5;8.1E-7;0;Iridium
14.34217411;0.0001911;86.395;312.3194;86.9861;273.1554;2.0899E-5;7.8E-7;0;Iridium
14.34217404;0.0001911;86.395;312.2902;87.0068;273.1346;1.9634E-5;7.5E-7;0;Iridium
14.34217408;0.0001909;86.395;312.1735;87.2397;272.9018;1.971E-5;7.5E-7;0;Iridium
14.34217417;0.0001908;86.3949;311.8817;87.2361;272.9053;1.6368E-5;6.6E-7;0;Iridium
14.34217433;0.000191;86.3949;311.7358;87.5541;272.5874;1.6792E-5;6.7E-7;0;Iridium
14.34217482;0.000191;86.3948;311.4731;87.7541;272.3873;1.6653E-5;6.6E-7;0;Iridium
14.34217527;0.0001916;86.3947;311.3272;88.1585;271.983;1.8843E-5;7.3E-7;0;Iridium
14.34217618;0.0001918;86.3946;311.0646;88.2532;271.8883;2.0855E-5;7.8E-7;0;Iridium
14.34217678;0.0001924;86.3946;310.9187;88.6617;271.4799;2.2955E-5;8.4E-7;0;Iridium
14.34217789;0.0001925;86.3944;310.6268;88.875;271.2667;2.4342E-5;8.8E-7;0;Iridium
14.34217789;0.0001925;86.3944;310.6268;88.875;271.2667;2.4342E-5;8.8E-7;0;Iridium
14.34217846;0.0001928;86.3944;310.4809;89.0649;271.0767;2.62E-5;9.3E-7;0;Iridium
14.34217941;0.0001933;86.3943;310.2182;89.3482;270.7935;2.6362E-5;9.4E-7;0;Iridium
14.34217994;0.0001934;86.3942;310.0723;89.5681;270.5737;2.8159E-5;9.9E-7;0;Iridium
14.34218066;0.0001935;86.3941;309.7804;89.7335;270.4082;2.4389E-5;8.8E-7;0;Iridium
14.34218104;0.0001936;86.394;309.6345;89.9569;270.1849;2.4854E-5;8.9E-7;0;Iridium
14.34218126;0.0001938;86.3939;309.401;89.9669;270.1749;2.0314E-5;7.7E-7;0;Iridium
14.34218135;0.0001938;86.3939;309.3718;90.005;270.1368;1.9703E-5;7.5E-7;0;Iridium
14.34218156;0.0001937;86.3939;309.2258;90.1871;269.9547;1.9171E-5;7.3E-7;0;Iridium
14.34218244;0.000194;86.3937;308.9631;90.5031;269.6387;1.8192E-5;7.1E-7;0;Iridium
14.34218244;0.000194;86.3937;308.9631;90.5031;269.6387;1.8192E-5;7.1E-7;0;Iridium
14.34218241;0.0001941;86.3937;308.9339;90.4924;269.6494;1.7032E-5;6.7E-7;0;Iridium
14.34218262;0.0001941;86.3937;308.8464;90.6525;269.4893;1.7892E-5;7.0E-7;0;Iridium
14.34218271;0.000194;86.3937;308.7588;90.6372;269.5046;1.6054E-5;6.5E-7;0;Iridium
14.34218311;0.0001947;86.3936;308.3793;91.0748;269.067;1.3316E-5;5.7E-7;0;Iridium
14.34218279;0.0001946;86.3936;308.3209;91.0311;269.1108;1.0193E-5;4.8E-7;0;Iridium
14.34218279;0.0001951;86.3935;308.1458;91.1154;269.0265;8.2102E-6;4.3E-7;0;Iridium
14.34218262;0.0001953;86.3935;307.9998;91.332;268.8099;6.7925E-6;3.9E-7;0;Iridium
14.34218241;0.0001953;86.3934;307.7371;91.3992;268.7428;3.6958E-6;3.0E-7;0;Iridium
14.3421823;0.0001953;86.3934;307.5911;91.5751;268.5668;2.8284E-6;2.8E-7;0;Iridium
14.3421814;0.0001953;86.3933;307.4743;91.5035;268.6385;-2.2683E-6;1.3E-7;0;Iridium
14.34218079;0.0001958;86.3933;307.1241;91.9434;268.1986;-3.8498E-6;9.0E-8;0;Iridium
14.34217968;0.000188;86.3932;306.8904;88.0296;272.1115;-5.5873E-6;4.0E-8;0;Iridium
14.34217942;0.0001881;86.3931;306.7153;87.8801;272.261;-6.1272E-6;3.0E-8;0;Iridium
14.34217859;0.000189;86.393;306.4526;88.5705;271.5707;-8.7775E-6;-5.0E-8;0;Iridium
14.34217846;0.0001891;86.393;306.4234;88.8255;271.3157;-9.2619E-6;-6.0E-8;0;Iridium
14.34217826;0.0001895;86.3931;306.3357;89.0653;271.076;-9.5755E-6;-7.0E-8;0;Iridium
14.34217797;0.0001907;86.393;306.0146;89.4588;270.6826;-9.589E-6;-7.0E-8;0;Iridium
14.34217793;0.000191;86.3929;305.8685;89.5442;270.5973;-8.8129E-6;-5.0E-8;0;Iridium
14.34217809;0.000192;86.3928;305.5766;89.602;270.5396;-7.06E-6;0;0;Iridium
14.34217813;0.0001926;86.3928;305.4598;89.914;270.2277;-6.124E-6;3.0E-8;0;Iridium
14.34217806;0.000193;86.3927;305.197;89.9807;270.161;-5.4223E-6;5.0E-8;0;Iridium
14.34217803;0.0001932;86.3927;305.1094;90.2071;269.9346;-4.922E-6;6.0E-8;0;Iridium
14.34217791;0.0001938;86.3927;304.7882;90.0458;270.096;-4.3873E-6;7.0E-8;0;Iridium
14.34217778;0.0001942;86.3927;304.613;90.1785;269.9633;-4.0254E-6;9.0E-8;0;Iridium
14.3421773;0.0001956;86.3927;304.2041;90.5301;269.6119;-4.6064E-6;7.0E-8;0;Iridium
14.34217632;0.0001965;86.3927;303.8537;90.8088;269.3333;-7.9777E-6;-3.0E-8;0;Iridium
14.34217574;0.0001971;86.3927;303.5033;90.7275;269.4147;-9.1776E-6;-6.0E-8;0;Iridium
14.34217556;0.0001975;86.3927;303.3573;90.7976;269.3446;-9.0905E-6;-6.0E-8;0;Iridium
14.34217547;0.0001978;86.3927;303.0945;90.8663;269.2759;-8.184E-6;-3.0E-8;0;Iridium
14.34217542;0.0001985;86.3927;302.9485;91.1028;269.0395;-7.5152E-6;-1.0E-8;0;Iridium
14.34217572;0.0001992;86.3927;302.6565;91.3096;268.8328;-5.3341E-6;5.0E-8;0;Iridium
14.34217567;0.0001997;86.3926;302.5397;91.514;268.6284;-5.0523E-6;6.0E-8;0;Iridium
14.34217581;0.0002006;86.3926;302.2478;91.5418;268.6007;-3.7499E-6;9.0E-8;0;Iridium
14.34217561;0.0002009;86.3926;302.1018;91.6633;268.4792;-4.3032E-6;8.0E-8;0;Iridium
14.3421755;0.0002015;86.3926;301.839;91.6531;268.4896;-4.3412E-6;8.0E-8;0;Iridium
14.3421755;0.0002015;86.3926;301.839;91.6531;268.4896;-4.3412E-6;8.0E-8;0;Iridium
14.34217538;0.0002021;86.3926;301.693;91.8883;268.2545;-4.3759E-6;8.0E-8;0;Iridium
14.34217471;0.0002019;86.3925;301.4594;91.6186;268.5241;-7.1898E-6;0;0;Iridium
14.3421747;0.0002023;86.3925;301.3426;91.8028;268.34;-6.7209E-6;1.0E-8;0;Iridium
14.34217399;0.0002036;86.3924;301.0215;92.1785;267.9644;-9.1451E-6;-6.0E-8;0;Iridium
14.34217424;0.000204;86.3923;300.8462;92.3744;267.7685;-7.2796E-6;-1.0E-8;0;Iridium
14.34217423;0.000205;86.3923;300.525;92.5723;267.5708;-6.0637E-6;3.0E-8;0;Iridium
14.34217413;0.0002055;86.3923;300.4374;92.6237;267.5194;-6.2323E-6;2.0E-8;0;Iridium
14.34217397;0.000206;86.3923;300.1746;92.4332;267.71;-5.9468E-6;3.0E-8;0;Iridium
14.34217396;0.0002063;86.3923;300.0286;92.3962;267.747;-4.9344E-6;6.0E-8;0;Iridium
14.3421739;0.0002077;86.3923;299.7364;92.6288;267.5145;-4.1906E-6;8.0E-8;0;Iridium
14.34217362;0.0002079;86.3923;299.5904;92.5688;267.5745;-4.7818E-6;6.0E-8;0;Iridium
14.34217285;0.0002095;86.3923;299.2108;92.9596;267.184;-6.5593E-6;1.0E-8;0;Iridium
14.34217266;0.0002095;86.3923;299.1816;92.9806;267.163;-7.3028E-6;-1.0E-8;0;Iridium
14.34217223;0.0002101;86.3923;298.9187;92.9362;267.2074;-8.2341E-6;-3.0E-8;0;Iridium
14.34217203;0.0002109;86.3924;298.7727;93.028;267.1157;-8.1806E-6;-3.0E-8;0;Iridium
14.34217159;0.0002115;86.3924;298.5099;92.8856;267.2582;-8.9906E-6;-5.0E-8;0;Iridium
14.34217156;0.0002119;86.3925;298.3346;92.8195;267.3243;-8.1171E-6;-3.0E-8;0;Iridium
14.3421716;0.0002123;86.3926;298.0719;92.5559;267.588;-6.5658E-6;1.0E-8;0;Iridium
14.34217154;0.0002131;86.3926;297.9259;92.7439;267.4001;-6.2643E-6;2.0E-8;0;Iridium
14.34217117;0.000214;86.3926;297.663;92.7545;267.3896;-6.9868E-6;0;0;Iridium
14.34217112;0.0002148;86.3927;297.517;92.9876;267.1566;-6.4892E-6;2.0E-8;0;Iridium
14.3421709;0.0002151;86.3927;297.2542;92.622;267.5222;-6.5645E-6;1.0E-8;0;Iridium
14.3421709;0.0002151;86.3927;297.2542;92.622;267.5222;-6.5645E-6;1.0E-8;0;Iridium
14.34217061;0.0002155;86.3927;297.079;92.5095;267.6347;-7.1623E-6;0;0;Iridium
14.34217014;0.0002157;86.3927;296.8162;92.3034;267.8408;-8.5168E-6;-4.0E-8;0;Iridium
14.34216978;0.0002163;86.3927;296.6703;92.268;267.8764;-9.5755E-6;-7.0E-8;0;Iridium
14.34216935;0.0002169;86.3927;296.4074;92.2324;267.912;-1.0539E-5;-1.0E-7;0;Iridium
14.34216905;0.0002172;86.3928;296.2615;92.15;267.9945;-1.1017E-5;-1.1E-7;0;Iridium
14.34216865;0.0002175;86.3927;295.9987;91.9903;268.1541;-1.1452E-5;-1.2E-7;0;Iridium
14.3421686;0.0002188;86.3928;295.8235;92.3405;267.8041;-1.0692E-5;-1.0E-7;0;Iridium
14.34216865;0.0002183;86.3928;295.5899;91.7637;268.3809;-9.2262E-6;-6.0E-8;0;Iridium
14.34216958;0.0002202;86.3927;295.1517;91.9513;268.1935;-3.042E-6;1.1E-7;0;Iridium
14.34217072;0.00023;86.3931;294.7427;94.8353;265.3105;5.1053E-6;3.4E-7;0;Iridium
14.34217138;0.0002311;86.3932;294.5676;95.4434;264.7026;9.321E-6;4.6E-7;0;Iridium
14.34217225;0.0002311;86.3932;294.334;94.9337;265.2123;1.2522E-5;5.5E-7;0;Iridium
